CCSDS_OMM_VERS = 2.0
CREATION_DATE  = 
ORIGINATOR     = 

OBJECT_NAME    = DELTA 1 R/B
OBJECT_ID      = 1989-089B
CENTER_NAME    = EARTH
REF_FRAME      = TEME
TIME_SYSTEM    = UTC
MEAN_ELEMENT_THEORY = SGP/SGP4

EPOCH          = 2025-11-14T05:16:19.411968
MEAN_MOTION    = 14.50538073
ECCENTRICITY   = .00704413
INCLINATION    = 97.0778
RA_OF_ASC_NODE = 178.9741
ARG_OF_PERICENTER = 126.6815
MEAN_ANOMALY   = 234.0885

EPHEMERIS_TYPE = 0
CLASSIFICATION_TYPE = U
NORAD_CAT_ID   = 20323
ELEMENT_SET_NO = 999
REV_AT_EPOCH   = 87899
BSTAR          = .21561475E-3
MEAN_MOTION_DOT = .837E-5
MEAN_MOTION_DDOT = 0

CCSDS_OMM_VERS = 2.0
CREATION_DATE  = 
ORIGINATOR     = 

OBJECT_NAME    = ARIANE 40 R/B
OBJECT_ID      = 1990-005H
CENTER_NAME    = EARTH
REF_FRAME      = TEME
TIME_SYSTEM    = UTC
MEAN_ELEMENT_THEORY = SGP/SGP4

EPOCH          = 2025-11-14T04:14:22.655904
MEAN_MOTION    = 14.39767804
ECCENTRICITY   = .00100515
INCLINATION    = 98.3283
RA_OF_ASC_NODE = 17.1565
ARG_OF_PERICENTER = 185.9043
MEAN_ANOMALY   = 174.2029

EPHEMERIS_TYPE = 0
CLASSIFICATION_TYPE = U
NORAD_CAT_ID   = 20443
ELEMENT_SET_NO = 999
REV_AT_EPOCH   = 87618
BSTAR          = .31690305E-3
MEAN_MOTION_DOT = .951E-5
MEAN_MOTION_DDOT = 0

CCSDS_OMM_VERS = 2.0
CREATION_DATE  = 
ORIGINATOR     = 

OBJECT_NAME    = DELTA 2 R/B(1)
OBJECT_ID      = 1990-008B
CENTER_NAME    = EARTH
REF_FRAME      = TEME
TIME_SYSTEM    = UTC
MEAN_ELEMENT_THEORY = SGP/SGP4

EPOCH          = 2025-11-13T17:08:52.552896
MEAN_MOTION    = 15.42610275
ECCENTRICITY   = .01178068
INCLINATION    = 35.6069
RA_OF_ASC_NODE = 207.5772
ARG_OF_PERICENTER = 274.0075
MEAN_ANOMALY   = 84.7197

EPHEMERIS_TYPE = 0
CLASSIFICATION_TYPE = U
NORAD_CAT_ID   = 20453
ELEMENT_SET_NO = 999
REV_AT_EPOCH   = 90814
BSTAR          = .9548846E-3
MEAN_MOTION_DOT = .55711E-3
MEAN_MOTION_DDOT = 0

CCSDS_OMM_VERS = 2.0
CREATION_DATE  = 
ORIGINATOR     = 

OBJECT_NAME    = COSMOS 2058
OBJECT_ID      = 1990-010A
CENTER_NAME    = EARTH
REF_FRAME      = TEME
TIME_SYSTEM    = UTC
MEAN_ELEMENT_THEORY = SGP/SGP4

EPOCH          = 2025-11-14T01:40:36.005088
MEAN_MOTION    = 15.10152787
ECCENTRICITY   = .00110068
INCLINATION    = 82.4654
RA_OF_ASC_NODE = 161.2361
ARG_OF_PERICENTER = 19.6957
MEAN_ANOMALY   = 340.4695

EPHEMERIS_TYPE = 0
CLASSIFICATION_TYPE = U
NORAD_CAT_ID   = 20465
ELEMENT_SET_NO = 999
REV_AT_EPOCH   = 92478
BSTAR          = .52435996E-3
MEAN_MOTION_DOT = .8594E-4
MEAN_MOTION_DDOT = 0

CCSDS_OMM_VERS = 2.0
CREATION_DATE  = 
ORIGINATOR     = 

OBJECT_NAME    = SL-14 R/B
OBJECT_ID      = 1990-010B
CENTER_NAME    = EARTH
REF_FRAME      = TEME
TIME_SYSTEM    = UTC
MEAN_ELEMENT_THEORY = SGP/SGP4

EPOCH          = 2025-11-14T05:07:06.896064
MEAN_MOTION    = 14.83433860
ECCENTRICITY   = .00188842
INCLINATION    = 82.5048
RA_OF_ASC_NODE = 15.8362
ARG_OF_PERICENTER = 324.0840
MEAN_ANOMALY   = 35.9105

EPHEMERIS_TYPE = 0
CLASSIFICATION_TYPE = U
NORAD_CAT_ID   = 20466
ELEMENT_SET_NO = 999
REV_AT_EPOCH   = 91136
BSTAR          = .10749827E-3
MEAN_MOTION_DOT = .908E-5
MEAN_MOTION_DDOT = 0

CCSDS_OMM_VERS = 2.0
CREATION_DATE  = 
ORIGINATOR     = 

OBJECT_NAME    = SL-14 R/B
OBJECT_ID      = 1990-018B
CENTER_NAME    = EARTH
REF_FRAME      = TEME
TIME_SYSTEM    = UTC
MEAN_ELEMENT_THEORY = SGP/SGP4

EPOCH          = 2025-11-14T07:44:34.506240
MEAN_MOTION    = 14.82006587
ECCENTRICITY   = .00178652
INCLINATION    = 82.5205
RA_OF_ASC_NODE = 330.9289
ARG_OF_PERICENTER = 110.1266
MEAN_ANOMALY   = 250.1873

EPHEMERIS_TYPE = 0
CLASSIFICATION_TYPE = U
NORAD_CAT_ID   = 20511
ELEMENT_SET_NO = 999
REV_AT_EPOCH   = 90549
BSTAR          = .108984E-3
MEAN_MOTION_DOT = .89E-5
MEAN_MOTION_DDOT = 0

CCSDS_OMM_VERS = 2.0
CREATION_DATE  = 
ORIGINATOR     = 

OBJECT_NAME    = HST
OBJECT_ID      = 1990-037B
CENTER_NAME    = EARTH
REF_FRAME      = TEME
TIME_SYSTEM    = UTC
MEAN_ELEMENT_THEORY = SGP/SGP4

EPOCH          = 2025-11-13T18:55:17.239008
MEAN_MOTION    = 15.27499624
ECCENTRICITY   = .00014019
INCLINATION    = 28.4676
RA_OF_ASC_NODE = 109.4617
ARG_OF_PERICENTER = 277.9729
MEAN_ANOMALY   = 82.0707

EPHEMERIS_TYPE = 0
CLASSIFICATION_TYPE = U
NORAD_CAT_ID   = 20580
ELEMENT_SET_NO = 999
REV_AT_EPOCH   = 75556
BSTAR          = .54543384E-3
MEAN_MOTION_DOT = .15346E-3
MEAN_MOTION_DDOT = 0

CCSDS_OMM_VERS = 2.0
CREATION_DATE  = 
ORIGINATOR     = 

OBJECT_NAME    = SL-16 R/B
OBJECT_ID      = 1990-046B
CENTER_NAME    = EARTH
REF_FRAME      = TEME
TIME_SYSTEM    = UTC
MEAN_ELEMENT_THEORY = SGP/SGP4

EPOCH          = 2025-11-14T01:04:18.794208
MEAN_MOTION    = 14.14990711
ECCENTRICITY   = .00122981
INCLINATION    = 70.9969
RA_OF_ASC_NODE = 180.7838
ARG_OF_PERICENTER = 125.8140
MEAN_ANOMALY   = 234.4128

EPHEMERIS_TYPE = 0
CLASSIFICATION_TYPE = U
NORAD_CAT_ID   = 20625
ELEMENT_SET_NO = 999
REV_AT_EPOCH   = 83203
BSTAR          = -.36315765E-4
MEAN_MOTION_DOT = -.118E-5
MEAN_MOTION_DDOT = 0

CCSDS_OMM_VERS = 2.0
CREATION_DATE  = 
ORIGINATOR     = 

OBJECT_NAME    = COSMOS 2084
OBJECT_ID      = 1990-055A
CENTER_NAME    = EARTH
REF_FRAME      = TEME
TIME_SYSTEM    = UTC
MEAN_ELEMENT_THEORY = SGP/SGP4

EPOCH          = 2025-11-14T03:04:42.324096
MEAN_MOTION    = 15.04781815
ECCENTRICITY   = .00362173
INCLINATION    = 62.7924
RA_OF_ASC_NODE = 9.4643
ARG_OF_PERICENTER = 171.2642
MEAN_ANOMALY   = 188.9097

EPHEMERIS_TYPE = 0
CLASSIFICATION_TYPE = U
NORAD_CAT_ID   = 20663
ELEMENT_SET_NO = 999
REV_AT_EPOCH   = 91892
BSTAR          = .49040392E-3
MEAN_MOTION_DOT = .6855E-4
MEAN_MOTION_DDOT = 0

CCSDS_OMM_VERS = 2.0
CREATION_DATE  = 
ORIGINATOR     = 

OBJECT_NAME    = SL-6 R/B(2)
OBJECT_ID      = 1990-055D
CENTER_NAME    = EARTH
REF_FRAME      = TEME
TIME_SYSTEM    = UTC
MEAN_ELEMENT_THEORY = SGP/SGP4

EPOCH          = 2025-11-14T06:59:38.567040
MEAN_MOTION    = 15.02879626
ECCENTRICITY   = .00108118
INCLINATION    = 62.7837
RA_OF_ASC_NODE = 286.0629
ARG_OF_PERICENTER = 285.1103
MEAN_ANOMALY   = 74.8799

EPHEMERIS_TYPE = 0
CLASSIFICATION_TYPE = U
NORAD_CAT_ID   = 20666
ELEMENT_SET_NO = 999
REV_AT_EPOCH   = 92084
BSTAR          = .34866771E-3
MEAN_MOTION_DOT = .4511E-4
MEAN_MOTION_DDOT = 0

CCSDS_OMM_VERS = 2.0
CREATION_DATE  = 
ORIGINATOR     = 

OBJECT_NAME    = SL-8 R/B
OBJECT_ID      = 1990-078B
CENTER_NAME    = EARTH
REF_FRAME      = TEME
TIME_SYSTEM    = UTC
MEAN_ELEMENT_THEORY = SGP/SGP4

EPOCH          = 2025-11-14T03:55:58.513152
MEAN_MOTION    = 14.84370899
ECCENTRICITY   = .03805965
INCLINATION    = 82.9071
RA_OF_ASC_NODE = 354.8518
ARG_OF_PERICENTER = 41.5728
MEAN_ANOMALY   = 321.3767

EPHEMERIS_TYPE = 0
CLASSIFICATION_TYPE = U
NORAD_CAT_ID   = 20775
ELEMENT_SET_NO = 999
REV_AT_EPOCH   = 79213
BSTAR          = .90191334E-3
MEAN_MOTION_DOT = .29234E-3
MEAN_MOTION_DDOT = 0

CCSDS_OMM_VERS = 2.0
CREATION_DATE  = 
ORIGINATOR     = 

OBJECT_NAME    = SL-8 R/B
OBJECT_ID      = 1991-006B
CENTER_NAME    = EARTH
REF_FRAME      = TEME
TIME_SYSTEM    = UTC
MEAN_ELEMENT_THEORY = SGP/SGP4

EPOCH          = 2025-11-14T07:05:32.871840
MEAN_MOTION    = 13.77484676
ECCENTRICITY   = .00226614
INCLINATION    = 82.9417
RA_OF_ASC_NODE = 255.8700
ARG_OF_PERICENTER = 2.1890
MEAN_ANOMALY   = 150.1383

EPHEMERIS_TYPE = 0
CLASSIFICATION_TYPE = U
NORAD_CAT_ID   = 21088
ELEMENT_SET_NO = 999
REV_AT_EPOCH   = 74818
BSTAR          = .1787482E-3
MEAN_MOTION_DOT = .193E-5
MEAN_MOTION_DDOT = 0

