DELTA 1 R/B             
1 20323U 89089B   25318.21966912  .00000837  00000+0  21561-3 0  9994
2 20323  97.0778 178.9741 0070441 126.6815 234.0885 14.50538073878999
ARIANE 40 R/B           
1 20443U 90005H   25318.17665111  .00000951  00000+0  31690-3 0  9990
2 20443  98.3283  17.1565 0010051 185.9043 174.2029 14.39767804876184
DELTA 2 R/B(1)          
1 20453U 90008B   25317.71449714  .00055711  00000+0  95488-3 0  9991
2 20453  35.6069 207.5772 0117806 274.0075  84.7197 15.42610275908144
COSMOS 2058             
1 20465U 90010A   25318.06986117  .00008594  00000+0  52436-3 0  9992
2 20465  82.4654 161.2361 0011006  19.6957 340.4695 15.10152787924781
SL-14 R/B               
1 20466U 90010B   25318.21327426  .00000908  00000+0  10750-3 0  9996
2 20466  82.5048  15.8362 0018884 324.0840  35.9105 14.83433860911365
SL-14 R/B               
1 20511U 90018B   25318.32262160  .00000890  00000+0  10898-3 0  9993
2 20511  82.5205 330.9289 0017865 110.1266 250.1873 14.82006587905495
HST                     
1 20580U 90037B   25317.78839397  .00015346  00000+0  54543-3 0  9998
2 20580  28.4676 109.4617 0001401 277.9729  82.0707 15.27499624755568
SL-16 R/B               
1 20625U 90046B   25318.04466197 -.00000118  00000+0 -36316-4 0  9994
2 20625  70.9969 180.7838 0012298 125.8140 234.4128 14.14990711832032
COSMOS 2084             
1 20663U 90055A   25318.12826764  .00006855  00000+0  49040-3 0  9994
2 20663  62.7924   9.4643 0036217 171.2642 188.9097 15.04781815918928
SL-6 R/B(2)             
1 20666U 90055D   25318.29141860  .00004511  00000+0  34867-3 0  9990
2 20666  62.7837 286.0629 0010811 285.1103  74.8799 15.02879626920842
SL-8 R/B                
1 20775U 90078B   25318.16387168  .00029234  00000+0  90191-3 0  9996
2 20775  82.9071 354.8518 0380596  41.5728 321.3767 14.84370899792136
SL-8 R/B                
1 21088U 91006B   25318.29551935  .00000193  00000+0  17875-3 0  9996
2 21088  82.9417 255.8700 0022661   2.1890 150.1383 13.77484676748188
